[{"OBJECT_NAME":"STARLINK-2563","OBJECT_ID":"2021-038BK","EPOCH":"2026-03-10T00:00:02.999808","MEAN_MOTION":15.24145357,"ECCENTRICITY":8.38e-5,"INCLINATION":53.1328,"RA_OF_ASC_NODE":294.6315,"ARG_OF_PERICENTER":99.3538,"MEAN_ANOMALY":165.2614,"EPHEMERIS_TYPE":0,"CLASSIFICATION_TYPE":"U","NORAD_CAT_ID":48410,"ELEMENT_SET_NO":999,"REV_AT_EPOCH":574,"BSTAR":0.067627981,"MEAN_MOTION_DOT":0.01832108,"MEAN_MOTION_DDOT":0},{"OBJECT_NAME":"TITAN 3C TRANSTAGE DEB","OBJECT_ID":"1965-082PT","EPOCH":"2026-03-09T13:23:41.116128","MEAN_MOTION":15.28908269,"ECCENTRICITY":0.00104371,"INCLINATION":32.0266,"RA_OF_ASC_NODE":255.1391,"ARG_OF_PERICENTER":172.8339,"MEAN_ANOMALY":187.2474,"EPHEMERIS_TYPE":0,"CLASSIFICATION_TYPE":"U","NORAD_CAT_ID":3462,"ELEMENT_SET_NO":999,"REV_AT_EPOCH":24824,"BSTAR":0.0004444037,"MEAN_MOTION_DOT":0.00012939,"MEAN_MOTION_DDOT":0}]
